PHISAT 2                
1 60470U 24149C   26068.78834181  .00008925  00000+0  31421-3 0  9996
2 60470  97.3806 148.6498 0001175 168.6230 191.5037 15.29548631 86792
STARLINK-35394          
1 66023U 25232U   26068.52807082  .00033575  00000+0  11406-2 0  9991
2 66023  53.1578 104.4580 0001270  93.3560 266.7586 15.30199264 23416
